STARLINK-3511           
1 51752C 22016AQ  26091.02548611 -.00019901  00000+0 -12481-2 0   918
2 51752  53.2165 208.7836 0001203  91.0579 333.1246 15.08845517    12
STARLINK-3507           
1 51753C 22016AR  26090.98243056 -.00029100  00000+0 -18251-2 0   900
2 51753  53.2159 209.0557 0001265  87.5921  22.5130 15.08846530    16
STARLINK-3457           
1 51754C 22016AS  26091.02965278 -.00017209  00000+0 -10787-2 0   918
2 51754  53.2154 208.5897 0001161 103.5448 108.5009 15.08863335    13
STARLINK-3460           
1 51755C 22016AT  26090.99840278 -.00029063  00000+0 -18230-2 0   907
2 51755  53.2163 208.9729 0001105  83.7777 178.3291 15.08843559    18
STARLINK-3513           
1 51756C 22016AU  26090.94979167 -.00033504  00000+0 -21017-2 0   905
2 51756  53.2152 209.1921 0001356  88.5403  69.3974 15.08842480    10
STARLINK-3459           
1 51757C 22016AV  26090.99770833 -.00022785  00000+0 -14294-2 0   908
2 51757  53.2152 208.9868 0001355  94.5725 338.5788 15.08835317    16
STARLINK-3458           
1 51758C 22016AW  26090.94979167 -.00046033  00000+0 -28848-2 0   907
2 51758  53.2151 209.1442 0001265  86.9205 131.1102 15.08883939    15
STARLINK-3456           
1 51759C 22016AX  26090.96229167 -.00026892  00000+0 -16874-2 0   905
2 51759  53.2150 209.1372 0001432  84.5531 181.3233 15.08828388    18
STARLINK-3622           
1 51768C 22017A   26090.94354167 -.00005361  00000+0 -33620-3 0   900
2 51768  53.2150 239.2200 0000945  68.1556 290.7951 15.08839221    15
STARLINK-3621           
1 51769C 22017B   26091.00604167 -.00038709  00000+0 -24275-2 0   915
2 51769  53.2146 238.9372 0001285  79.5642 299.0696 15.08856160    16
STARLINK-3612           
1 51770C 22017C   26090.93868056 -.00009900  00000+0 -62084-3 0   908
2 51770  53.2148 239.2410 0001210  80.8406 271.7001 15.08840934    17
STARLINK-3614           
1 51771C 22017D   26091.05326389 -.00034337  00000+0 -21536-2 0   910
2 51771  53.2147 238.7135 0001207  88.5817 206.7263 15.08849115    10
STARLINK-3623           
1 51772C 22017E   26090.94145833  .00016445  00000+0  10314-2 0   900
2 51772  53.2145 239.2279 0001202  76.5186  11.1500 15.08823315    11
STARLINK-3624           
1 51773C 22017F   26091.00465278 -.00020623  00000+0 -12934-2 0   913
2 51773  53.2143 238.9143 0001252  85.9626 319.9602 15.08843211    13
STARLINK-3629           
1 51774C 22017G   26090.97270833 -.00009836  00000+0 -61685-3 0   900
2 51774  53.2148 239.0883 0001241  85.8039 211.6970 15.08840938    16
STARLINK-3620           
1 51775C 22017H   26090.97479167 -.00030422  00000+0 -19078-2 0   905
2 51775  53.2145 239.0760 0001221  80.0791 168.7298 15.08852416    17
STARLINK-3608           
1 51776C 22017J   26091.02687500 -.00031443  00000+0 -19717-2 0   910
2 51776  53.2144 238.8461 0001240  86.6352 165.2103 15.08854270    15
STARLINK-3625           
1 51777C 22017K   26090.97201389 -.00008747  00000+0 -54872-3 0   903
2 51777  53.2147 239.0631 0001293  85.2306 203.2900 15.08828175    16
STARLINK-3615           
1 51778C 22017L   26091.02409722 -.00026134  00000+0 -16387-2 0   911
2 51778  53.2157 228.7320 0001445  76.6848 115.0719 15.08853017    13
STARLINK-3611           
1 51779C 22017M   26090.94562500 -.00002567  00000+0 -16099-3 0   900
2 51779  53.2148 239.2582 0001214  82.8790  82.1649 15.08841780    10
STARLINK-3617           
1 51780C 22017N   26091.05881944 -.00034859  00000+0 -21864-2 0   916
2 51780  53.2154 238.6922 0001258  88.7604  56.7227 15.08847956    17
STARLINK-3580           
1 51781C 22017P   26091.00881944  .00013675  00000+0  85784-3 0   915
2 51781  53.2154 238.8883 0001717 104.7681 108.9074 15.08816843    11
STARLINK-3616           
1 51782C 22017Q   26090.95326389  .00023756  00000+0  14896-2 0   901
2 51782  53.2149 249.3298 0000590  68.5119   8.1993 15.08829480    16
STARLINK-3628           
1 51783C 22017R   26090.95743056  .00001292  00000+0  81014-4 0   905
2 51783  53.2152 239.2065 0001088  84.1075 185.1215 15.08832620    12
STARLINK-3632           
1 51784C 22017S   26091.05465278 -.00030727  00000+0 -19271-2 0   917
2 51784  53.2152 248.7207 0001297  86.9364 280.9162 15.08849069    19
STARLINK-3646           
1 51785C 22017T   26091.02201389 -.00081824  00000+0 -51337-2 0   919
2 51785  53.2154 238.8392 0001541  77.5669 242.7528 15.08860009    12
STARLINK-3638           
1 51786C 22017U   26090.96437500 -.00007916  00000+0 -49643-3 0   905
2 51786  53.2149 249.1272 0001325  82.7631 194.4249 15.08840792    16
STARLINK-3619           
1 51787C 22017V   26090.99354167 -.00011837  00000+0 -74223-3 0   905
2 51787  53.2151 248.9958 0001265  83.0267 272.6676 15.08846228    13
STARLINK-3641           
1 51788C 22017W   26090.93173611  .00032445  00000+0  20348-2 0   907
2 51788  53.2149 249.2739 0001407  83.1759  76.6631 15.08818674    14
STARLINK-3639           
1 51789C 22017X   26090.98312500 -.00030071  00000+0 -18859-2 0   904
2 51789  53.2149 249.0415 0001426  84.9063 274.1921 15.08848473    19
STARLINK-3631           
1 51790C 22017Y   26091.04701389 -.00024689  00000+0 -15487-2 0   914
2 51790  53.2145 248.7540 0001083  88.1121 358.2242 15.08840285    15
STARLINK-3602           
1 51791C 22017Z   26091.01368056 -.00030736  00000+0 -19276-2 0   912
2 51791  53.2148 248.9050 0001343  82.8128 122.3483 15.08848471    16
STARLINK-3626           
1 51792C 22017AA  26091.00881944 -.00027559  00000+0 -17282-2 0   912
2 51792  53.2145 248.9261 0001209  80.9174 197.8125 15.08851437    15
STARLINK-3633           
1 51793C 22017AB  26090.98034722  .00416490  00000+0  84661-2 0   901
2 51793  53.2172 238.0539 0001841  34.9241 266.9332 15.45512269    16
STARLINK-3573           
1 51794C 22017AC  26090.96437500  .00013656  00000+0  85648-3 0   905
2 51794  53.2142 249.1242 0001265  79.9668 357.2504 15.08825873    12
STARLINK-3586           
1 51795C 22017AD  26090.95881944  .00018652  00000+0  11703-2 0   901
2 51795  53.2146 249.3502 0001137  70.5604 216.3887 15.08806960    18
STARLINK-3634           
1 51798C 22017AG  26090.99631944 -.00021665  00000+0 -13586-2 0   902
2 51798  53.2149 248.9821 0001300  84.6236 246.1865 15.08847059    13
STARLINK-3637           
1 51799C 22017AH  26091.06020833 -.00036852  00000+0 -23112-2 0   912
2 51799  53.2143 248.6930 0001189  86.1682 171.8620 15.08852081    17
STARLINK-3592           
1 51801C 22017AK  26091.01020833 -.00015615  00000+0 -97937-3 0   912
2 51801  53.2149 248.9202 0001211  84.1963 282.1065 15.08839528    18
STARLINK-3544           
1 51803C 22017AM  26091.01229167 -.00034023  00000+0 -21333-2 0   915
2 51803  53.2147 248.9118 0001088  79.5101 358.0819 15.08859657    13
STARLINK-3601           
1 51804C 22017AN  26090.99076389 -.00022964  00000+0 -14401-2 0   906
2 51804  53.2156 229.0085 0001254  84.1541 166.4579 15.08846989    10
STARLINK-3605           
1 51805C 22017AP  26091.02270833 -.00040810  00000+0 -25601-2 0   917
2 51805  53.2155 228.9411 0001231  84.5884 319.6018 15.08845459    11
STARLINK-3606           
1 51807C 22017AR  26090.94493056  .00009976  00000+0  62567-3 0   901
2 51807  53.2152 239.2125 0001249  88.3305 178.2195 15.08828679    16
STARLINK-3609           
1 51808C 22017AS  26090.93173611 -.00002906  00000+0 -18225-3 0   903
2 51808  53.2149 239.2722 0001300  79.6738 195.1280 15.08837081    17
STARLINK-3607           
1 51809C 22017AT  26091.00881944 -.00037842  00000+0 -23734-2 0   916
2 51809  53.2153 238.8876 0001291  85.2090 208.5388 15.08851412    13
STARLINK-3613           
1 51810C 22017AU  26090.93798611 -.00014911  00000+0 -93512-3 0   900
2 51810  53.2156 229.4653 0001129  78.5600 345.0836 15.08842679    19
STARLINK-3569           
1 51811C 22017AV  26090.99909722 -.00016661  00000+0 -10450-2 0   907
2 51811  53.2152 238.9695 0001336  87.4810 173.4406 15.08838792    16
STARLINK-3610           
1 51812C 22017AW  26091.00743056 -.00027877  00000+0 -17483-2 0   912
2 51812  53.2149 228.9327 0001190  84.0312 177.1680 15.08847109    19
STARLINK-3552           
1 51813C 22017AX  26091.04840278 -.00028540  00000+0 -17899-2 0   910
2 51813  53.2159 228.7776 0001163  85.7102 138.1199 15.08848863    12
STARLINK-3599           
1 51814C 22017AY  26090.99006944 -.00021688  00000+0 -13600-2 0   909
2 51814  53.2153 229.0110 0001452  85.7798 121.0605 15.08849572    16
STARLINK-3604           
1 51815C 22017AZ  26090.97201389 -.00015212  00000+0 -95396-3 0   907
2 51815  53.2151 229.0922 0001284  88.8566 359.8666 15.08843082    14
STARLINK-3603           
1 51816C 22017BA  26090.91993056  .00582130  00000+0  12708-2 0   902
2 51816  53.2133 197.7912 0001905  18.9715 325.1320 15.97207509    14
STARLINK-3542           
1 51852C 22022A   26091.05187500  .00011283  00000+0  70788-3 0   913
2 51852  53.2142 278.7355 0001314  80.1436 327.5985 15.08814290    16
STARLINK-3541           
1 51854C 22022C   26090.96020833  .00092212  00000+0  48680-2 0   904
2 51854  53.2129 276.4983 0001153  66.7636 149.5310 15.14977313    15
STARLINK-3545           
1 51855C 22022D   26090.96090278  .00034805  00000+0  21827-2 0   903
2 51855  53.2153 279.0664 0001326  85.9987 287.3889 15.08818159    19
STARLINK-3568           
1 51856C 22022E   26091.00118056  .00035614  00000+0  22330-2 0   915
2 51856  53.2145 278.9734 0001368  85.0749  81.9410 15.08824573    15
STARLINK-3571           
1 51857C 22022F   26090.99493056  .00026247  00000+0  16459-2 0   905
2 51857  53.2151 279.0011 0001244  87.0472 106.0027 15.08825371    11
STARLINK-3563           
1 51858C 22022G   26091.01784722  .00020069  00000+0  12586-2 0   917
2 51858  53.2149 278.8883 0001302  84.8993 217.9180 15.08824764    18
STARLINK-3560           
1 51859C 22022H   26090.97062500  .00040570  00000+0  25456-2 0   903
2 51859  53.2149 269.1075 0001476  77.6288 238.2548 15.08795285    13
